NORAD_CAT_ID,OBJECT_NAME,OBJECT_TYPE,EPOCH,MEAN_MOTION,ECCENTRICITY,INCLINATION,RA_OF_ASC_NODE,ARG_OF_PERICENTER,MEAN_ANOMALY,BSTAR,MEAN_MOTION_DOT,MEAN_MOTION_DDOT,TLE_LINE0,TLE_LINE1,TLE_LINE2,SEMIMAJOR_AXIS,PERIOD,APOGEE,PERIGEE,DECAYED
52138.0,STARLINK-3723,PAYLOAD,2023-01-05 17:22:41,15.08850775,0.0002396999999999,53.2151,231.9282,39.1777,320.9388,0.00014432,2.01e-05,0.0,0 STARLINK-3723,1 52138U 22029BC  23005.72409360  .00002010  00000-0  14432-3 0  9995,2 52138  53.2151 231.9282 0002397  39.1777 320.9388 15.08850775 45974,6917.847,95.437,541.371,538.054,0.0
52138.0,STARLINK-3723,PAYLOAD,2023-01-06 07:41:10,15.08836567,0.0002159,53.2156,229.2538,34.7077,325.4055,-0.00014803,-2.643e-05,0.0,0 STARLINK-3723,1 52138U 22029BC  23006.32025912 -.00002643  00000-0 -14803-3 0  9995,2 52138  53.2156 229.2538 0002159  34.7077 325.4055 15.08836567 46068,6917.891,95.438,541.249,538.262,0.0
52138.0,STARLINK-3723,PAYLOAD,2023-01-06 15:38:07,15.08828405,0.0002503,53.216,227.7645,39.8787,320.2389,-5.0531e-05,-1.092e-05,0.0,0 STARLINK-3723,1 52138U 22029BC  23006.65147300 -.00001092  00000-0 -50531-4 0  9993,2 52138  53.2160 227.7645 0002503  39.8787 320.2389 15.08828405 46113,6917.916,95.438,541.512,538.049,0.0
52138.0,STARLINK-3723,PAYLOAD,2023-01-06 23:35:02,15.08830233,0.0002506,53.2149,226.2781,39.6362,320.4813,-0.00015666,-2.78e-05,0.0,0 STARLINK-3723,1 52138U 22029BC  23006.98266674 -.00002780  00000-0 -15666-3 0  9999,2 52138  53.2149 226.2781 0002506  39.6362 320.4813 15.08830233 46166,6917.91,95.438,541.509,538.0419999999998,0.0
52138.0,STARLINK-3723,PAYLOAD,2023-01-07 13:53:30,15.08839682,0.0002455,53.2163,223.6018,39.296,320.821,1.1267e-05,-1.09e-06,0.0,0 STARLINK-3723,1 52138U 22029BC  23007.57882795 -.00000109  00000-0  11267-4 0  9999,2 52138  53.2163 223.6018 0002455  39.2960 320.8210 15.08839682 46251,6917.880999999999,95.438,541.445,538.048,0.0
52138.0,STARLINK-3723,PAYLOAD,2023-01-08 13:44:17,15.08841599,0.0002501,53.2149,219.142,42.0864,318.032,0.00032852,4.944e-05,0.0,0 STARLINK-3723,1 52138U 22029BC  23008.57242912  .00004944  00000-0  32852-3 0  9993,2 52138  53.2149 219.1420 0002501  42.0864 318.0320 15.08841599 46407,6917.876,95.437,541.471,538.01,0.0
52138.0,STARLINK-3723,PAYLOAD,2023-01-08 20:05:50,15.08835829,0.0002519,53.2153,217.9525,43.6058,316.5132,0.00030426,4.557e-05,0.0,0 STARLINK-3723,1 52138U 22029BC  23008.83739408  .00004557  00000-0  30426-3 0  9998,2 52138  53.2153 217.9525 0002519  43.6058 316.5132 15.08835829 46442,6917.893,95.438,541.501,538.016,0.0
52138.0,STARLINK-3723,PAYLOAD,2023-01-09 07:13:32,15.08838249,0.0002507,53.2148,215.8709,42.8043,317.3144,0.00014407,2.005e-05,0.0,0 STARLINK-3723,1 52138U 22029BC  23009.30107358  .00002005  00000-0  14407-3 0  9991,2 52138  53.2148 215.8709 0002507  42.8043 317.3144 15.08838249 46518,6917.886,95.438,541.485,538.016,0.0
52138.0,STARLINK-3723,PAYLOAD,2023-01-09 13:35:05,15.088399300000004,0.0002586,53.2148,214.6814,44.0972,316.0226,0.00012172,1.649e-05,0.0,0 STARLINK-3723,1 52138U 22029BC  23009.56603365  .00001649  00000-0  12172-3 0  9998,2 52138  53.2148 214.6814 0002586  44.0972 316.0226 15.08839930 46553,6917.880999999999,95.438,541.535,537.957,0.0
52138.0,STARLINK-3723,PAYLOAD,2023-01-10 19:47:24,15.08848743,0.0002619,53.2149,209.0305,45.9686,314.1521,-7.5439e-06,-4.09e-06,0.0,0 STARLINK-3723,1 52138U 22029BC  23010.82458772 -.00000409  00000-0 -75439-5 0  9991,2 52138  53.2149 209.0305 0002619  45.9686 314.1521 15.08848743 46746,6917.854,95.437,541.53,537.9069999999998,0.0
52138.0,STARLINK-3723,PAYLOAD,2023-01-10 21:22:48,15.08839943,0.0002445,53.215,208.7336,40.9956,319.122,0.00024286,3.579e-05,0.0,0 STARLINK-3723,1 52138U 22029BC  23010.89083372  .00003579  00000-0  24286-3 0  9999,2 52138  53.2150 208.7336 0002445  40.9956 319.1220 15.08839943 46754,6917.880999999999,95.438,541.437,538.054,0.0
52138.0,STARLINK-3723,PAYLOAD,2023-01-10 22:58:11,15.08838786,0.0002466,53.2151,208.4364,40.5608,319.5568,0.00021945,3.206e-05,0.0,0 STARLINK-3723,1 52138U 22029BC  23010.95707413  .00003206  00000-0  21945-3 0  9991,2 52138  53.2151 208.4364 0002466  40.5608 319.5568 15.08838786 46760,6917.884,95.438,541.455,538.043,0.0
52138.0,STARLINK-3723,PAYLOAD,2023-01-11 13:16:39,15.08842626,0.0002484,53.2153,205.76,42.0536,318.0647,0.0001271,1.735e-05,0.0,0 STARLINK-3723,1 52138U 22029BC  23011.55323161  .00001735  00000-0  12710-3 0  9997,2 52138  53.2153 205.7600 0002484  42.0536 318.0647 15.08842626 46852,6917.871999999999,95.437,541.456,538.019,0.0
52138.0,STARLINK-3723,PAYLOAD,2023-01-11 19:38:11,15.08847381,0.0002537,53.2152,204.5707,43.5714,316.5478,0.00016989,2.417e-05,0.0,0 STARLINK-3723,1 52138U 22029BC  23011.81818858  .00002417  00000-0  16989-3 0  9998,2 52138  53.2152 204.5707 0002537  43.5714 316.5478 15.08847381 46891,6917.858,95.437,541.4780000000002,537.9680000000002,0.0
52138.0,STARLINK-3723,PAYLOAD,2023-01-12 19:28:58,15.08841736,0.0002628,53.2156,200.1106,47.625,312.4964,7.9505e-05,9.77e-06,0.0,0 STARLINK-3723,1 52138U 22029BC  23012.81178840  .00000977  00000-0  79505-4 0  9992,2 52138  53.2156 200.1106 0002628  47.6250 312.4964 15.08841736 47042,6917.875,95.437,541.558,537.922,0.0
52138.0,STARLINK-3723,PAYLOAD,2023-01-13 11:22:50,15.08830141,0.0002622,53.2156,197.1361,46.1503,313.9706,-2.0064e-05,-6.08e-06,0.0,0 STARLINK-3723,1 52138U 22029BC  23013.47420120 -.00000608  00000-0 -20064-4 0  9995,2 52138  53.2156 197.1361 0002622  46.1503 313.9706 15.08830141 47148,6917.911,95.438,541.589,537.962,0.0
52138.0,STARLINK-3723,PAYLOAD,2023-01-13 20:55:09,15.08834029,0.0002581,53.2164,195.353,47.7116,312.4094,-3.3064e-05,-8.15e-06,0.0,0 STARLINK-3723,1 52138U 22029BC  23013.87164036 -.00000815  00000-0 -33064-4 0  9994,2 52138  53.2164 195.3530 0002581  47.7116 312.4094 15.08834029 47206,6917.899,95.438,541.549,537.9780000000001,0.0
52138.0,STARLINK-3723,PAYLOAD,2023-01-14 17:35:10,15.08837193,0.0002549,53.2167,191.487,49.5354,310.586,6.0095e-05,6.68e-06,0.0,0 STARLINK-3723,1 52138U 22029BC  23014.73275850  .00000668  00000-0  60095-4 0  9995,2 52138  53.2167 191.4870 0002549  49.5354 310.5860 15.08837193 47330,6917.889,95.438,541.5169999999999,537.991,0.0
52138.0,STARLINK-3723,PAYLOAD,2023-01-15 11:04:25,15.08829557,0.0002529999999999,53.2167,188.2155,52.1227,307.9994,9.8123e-05,1.273e-05,0.0,0 STARLINK-3723,1 52138U 22029BC  23015.46140646  .00001273  00000-0  98123-4 0  9996,2 52138  53.2167 188.2155 0002530  52.1227 307.9994 15.08829557 47444,6917.911999999999,95.438,541.528,538.0269999999999,0.0
52138.0,STARLINK-3723,PAYLOAD,2023-01-15 12:39:48,15.08830019,0.0002512,53.2168,187.9183,51.4357,308.686,0.00011889,1.604e-05,0.0,0 STARLINK-3723,1 52138U 22029BC  23015.52764622  .00001604  00000-0  11889-3 0  9990,2 52138  53.2168 187.9183 0002512  51.4357 308.6860 15.08830019 47454,6917.911,95.438,541.514,538.038,0.0
52138.0,STARLINK-3723,PAYLOAD,2023-01-15 19:01:20,15.0883675,0.0002477,53.2165,186.7286,51.5446,308.5768,0.00014502,2.02e-05,0.0,0 STARLINK-3723,1 52138U 22029BC  23015.79260309  .00002020  00000-0  14502-3 0  9990,2 52138  53.2165 186.7286 0002477  51.5446 308.5768 15.08836750 47490,6917.89,95.438,541.469,538.0419999999999,0.0
52138.0,STARLINK-3723,PAYLOAD,2023-01-16 10:55:12,15.08838691,0.0002555,53.2159,183.7558,52.9894,307.1332,0.00011444,1.533e-05,0.0,0 STARLINK-3723,1 52138U 22029BC  23016.45500610  .00001533  00000-0  11444-3 0  9996,2 52138  53.2159 183.7558 0002555  52.9894 307.1332 15.08838691 47590,6917.884,95.438,541.5169999999999,537.982,0.0
52138.0,STARLINK-3723,PAYLOAD,2023-01-16 17:16:44,15.08842992,0.0002583999999999,53.2161,182.5665,54.2615,305.8617,0.00016267,2.302e-05,0.0,0 STARLINK-3723,1 52138U 22029BC  23016.71996423  .00002302  00000-0  16267-3 0  9999,2 52138  53.2161 182.5665 0002584  54.2615 305.8617 15.08842992 47632,6917.871,95.437,541.524,537.9490000000001,0.0
52138.0,STARLINK-3723,PAYLOAD,2023-01-17 10:45:59,15.0883294,0.0002399999999999,53.2163,179.295,56.633,303.4891,5.1139e-05,5.25e-06,0.0,0 STARLINK-3723,1 52138U 22029BC  23017.44861020  .00000525  00000-0  51139-4 0  9997,2 52138  53.2163 179.2950 0002400  56.6330 303.4891 15.08832940 47743,6917.901999999999,95.438,541.427,538.107,0.0
52138.0,STARLINK-3723,PAYLOAD,2023-01-17 17:07:32,15.0883925,0.0002549,53.2167,178.1054,60.2275,299.897,9.2557e-05,1.185e-05,0.0,0 STARLINK-3723,1 52138U 22029BC  23017.71356741  .00001185  00000-0  92557-4 0  9998,2 52138  53.2167 178.1054 0002549  60.2275 299.8970 15.08839250 47784,6917.883000000001,95.438,541.511,537.984,0.0
52138.0,STARLINK-3723,PAYLOAD,2023-01-18 13:47:32,15.08844001,0.0002379999999999,53.2155,174.2398,59.8278,300.295,0.00010295,1.351e-05,0.0,0 STARLINK-3723,1 52138U 22029BC  23018.57468477  .00001351  00000-0  10295-3 0  9996,2 52138  53.2155 174.2398 0002380  59.8278 300.2950 15.08844001 47919,6917.868,95.437,541.38,538.087,0.0
52138.0,STARLINK-3723,PAYLOAD,2023-01-18 15:22:55,15.08845349,0.0002322,53.2163,173.9427,58.9866,301.1354,0.0001226,1.664e-05,0.0,0 STARLINK-3723,1 52138U 22029BC  23018.64092379  .00001664  00000-0  12260-3 0  9999,2 52138  53.2163 173.9427 0002322  58.9866 301.1354 15.08845349 47921,6917.8640000000005,95.437,541.335,538.123,0.0
52138.0,STARLINK-3723,PAYLOAD,2023-01-19 08:52:10,15.08836025,0.0002418,53.2173,170.6737,55.0579,305.064,0.00016705,2.371e-05,0.0,0 STARLINK-3723,1 52138U 22029BC  23019.36956874  .00002371  00000-0  16705-3 0  9992,2 52138  53.2173 170.6737 0002418  55.0579 305.0640 15.08836025 48030,6917.893,95.438,541.43,538.085,0.0
52138.0,STARLINK-3723,PAYLOAD,2023-01-20 08:42:57,15.08841394,0.0002254999999999,53.2177,166.2113,72.8236,287.3003,3.8581e-05,3.26e-06,0.0,0 STARLINK-3723,1 52138U 22029BC  23020.36316925  .00000326  00000-0  38581-4 0  9996,2 52138  53.2177 166.2113 0002255  72.8236 287.3003 15.08841394 48185,6917.876,95.437,541.3009999999999,538.181,0.0
